stk.v.11.0

# WrittenBy    STK_v11.7.1

BEGIN Ephemeris

    NumberOfEphemerisPoints		 2608

    ScenarioEpoch		 16 Jul 2020 03:40:48.000000

# Epoch in JDate format: 2459046.65333333333333
# Epoch in YYDDD format:   20198.15333333333333


    InterpolationMethod		 Lagrange

    InterpolationSamplesM1		 7

    CentralBody		 Earth

    CoordinateSystem		 ICRF

# Time of first point: 16 Jul 2020 03:40:48.000000000 UTCG = 2459046.65333333333333 JDate = 20198.15333333333333 YYDDD

    EphemerisTimePosVel		

 4.4941009999999391e+04 -3.5387059925170583e+06  5.5147833683020845e+06  7.9860510700157611e+04  8.4229626431639133e+02  6.4584527524322743e+02 -7.7296853334519610e+03
 4.4984807999999393e+04 -3.4970176471548732e+06  5.5355547936694631e+06 -2.5863901892617194e+05  1.0609401923769926e+03  3.0244405392367435e+02 -7.7241031378929247e+03
 4.5029731999999392e+04 -3.4443730469273720e+06  5.5412117826394485e+06 -6.0509896523843147e+05  1.2822217131817897e+03 -5.0660784487410808e+01 -7.6964743002808955e+03
 4.5080296999999395e+04 -3.3733304530009888e+06  5.5286031592763886e+06 -9.9293427963586431e+05  1.5268818857457663e+03 -4.4790049745901774e+02 -7.6389430529752026e+03
 4.5127703999999394e+04 -3.2956064994735396e+06  5.4985678457916984e+06 -1.3532927351360540e+06  1.7512543378471614e+03 -8.1888795520454562e+02 -7.5597573318911345e+03
 4.5172001999999397e+04 -3.2134781502471920e+06  5.4546562957038283e+06 -1.6861294230547375e+06  1.9558777371058077e+03 -1.1632022090995661e+03 -7.4639106662752229e+03
 4.5217490999999398e+04 -3.1198343274945188e+06  5.3937638796251137e+06 -2.0230061582454068e+06  2.1603194304337267e+03 -1.5133753631218115e+03 -7.3438047998069405e+03
 4.5265023999999401e+04 -3.0122035676520141e+06  5.3132245698679313e+06 -2.3686404296755460e+06  2.3671416675335759e+03 -1.8744867546939261e+03 -7.1952192551682847e+03
 4.5319689999999398e+04 -2.8765102705329396e+06  5.1995685514164809e+06 -2.7566609748848267e+06  2.5955471106821697e+03 -2.2822300500580927e+03 -6.9958026954181150e+03
 4.5376678999999400e+04 -2.7220836578596728e+06  5.0576359526542537e+06 -3.1486713620916740e+06  2.8218869368690453e+03 -2.6968941945420383e+03 -6.7563142477695728e+03
 4.5429613999999397e+04 -2.5673999289020542e+06  4.9049262519091256e+06 -3.4998065033497028e+06  3.0204590864037164e+03 -3.0708863792007241e+03 -6.5059428909403850e+03
 4.5493826999999401e+04 -2.3661364108115807e+06  4.6935999387569791e+06 -3.9069091408178904e+06  3.2450963896334938e+03 -3.5079246434099118e+03 -6.1676378761162523e+03
 4.5554402999999402e+04 -2.1635826328089763e+06  4.4690903739399891e+06 -4.2700100913544204e+06  3.4395865196752889e+03 -3.9013329412440053e+03 -5.8154493068719248e+03
 4.5614465999999404e+04 -1.9516405735346489e+06  4.2235497415441200e+06 -4.6080648649850162e+06  3.6147227125609725e+03 -4.2712658860236252e+03 -5.4364374163664861e+03
 4.5670099999999402e+04 -1.7464104900784926e+06  3.9768433203639528e+06 -4.9001676741074827e+06  3.7604393765257514e+03 -4.5943849640601748e+03 -5.0606103653588416e+03
 4.5725360999999401e+04 -1.5349811182911426e+06  3.7145432447213377e+06 -5.1689992125692507e+06  3.8888250781468623e+03 -4.8953141701663226e+03 -4.6654173457135621e+03
 4.5779766999999403e+04 -1.3203396990256037e+06  3.4406176253224313e+06 -5.4117922084571021e+06  3.9987721816507201e+03 -5.1708401811069916e+03 -4.2567080842464393e+03
 4.5831053999999400e+04 -1.1129262103238264e+06  3.1691856500212937e+06 -5.6198729401094401e+06  4.0870602408263812e+03 -5.4106913077468971e+03 -3.8551532496758305e+03
 4.5882432999999401e+04 -9.0099118862473487e+05  2.8854486014329526e+06 -5.8073032060636189e+06  4.1602388931717751e+03 -5.6307263421385842e+03 -3.4385770076099398e+03
 4.5936820999999400e+04 -6.7299866491493536e+05  2.5733862864745706e+06 -5.9820122347406177e+06  4.2207633572718323e+03 -5.8406745391179138e+03 -2.9837415617978745e+03
 4.5986537999999397e+04 -4.6210209614104347e+05  2.2786803620328228e+06 -6.1197886650679903e+06  4.2606465758132181e+03 -6.0112052083473209e+03 -2.5570835182441060e+03
 4.6036918999999398e+04 -2.4674650821229047e+05  1.9719253377046303e+06 -6.2375331410216792e+06  4.2858768381953341e+03 -6.1625582466692713e+03 -2.1156923687495637e+03
 4.6087486999999397e+04 -2.9703394016710226e+04  1.6569236564310282e+06 -6.3331552411896819e+06  4.2957462868357843e+03 -6.2922245403978068e+03 -1.6651003477699435e+03
 4.6139019999999400e+04  1.9158636474420803e+05  1.3297623044520272e+06 -6.4069963677457422e+06  4.2898426401474471e+03 -6.4009622922365079e+03 -1.1997933726553567e+03
 4.6188482999999404e+04  4.0332148601453332e+05  1.0110370172596981e+06 -6.4552059475187240e+06  4.2690458792744275e+03 -6.4827469675094662e+03 -7.4897125923899898e+02
 4.6244446999999403e+04  6.4116627037023916e+05  6.4626895535290311e+05 -6.4827747413843591e+06  4.2277421376877337e+03 -6.5482577866899992e+03 -2.3590577703567590e+02
 4.6297406999999403e+04  8.6365004667870770e+05  2.9842278093152866e+05 -6.4823857654150920e+06  4.1714402043098107e+03 -6.5835911959779751e+03  2.5058687606887548e+02
 4.6345198999999404e+04  1.0615116548186066e+06 -1.6532174267326598e+04 -6.4599321981624831e+06  4.1064483276494657e+03 -6.5931034461031231e+03  6.8879679526495215e+02
 4.6383234999999404e+04  1.2165670346927315e+06 -2.6720514397420915e+05 -6.4271237890755925e+06  4.0452489148743052e+03 -6.5854792259961678e+03  1.0360339904191733e+03
 4.6422024999999405e+04  1.3721342303501379e+06 -5.2228150053274754e+05 -6.3801018474528808e+06  3.9743253024512724e+03 -6.5638469101368901e+03  1.3879736143634236e+03
 4.6477612999999408e+04  1.5899052567048583e+06 -8.8574795816650777e+05 -6.2890440664354321e+06  3.8580048167378777e+03 -6.5085526811568207e+03  1.8870057842378867e+03
 4.6530429999999411e+04  1.7904083126778908e+06 -1.2275400718517096e+06 -6.1770193948040092e+06  3.7318673729300676e+03 -6.4296996301363306e+03  2.3536010535506634e+03
 4.6583234999999411e+04  1.9838150175470330e+06 -1.5644206670455891e+06 -6.0406199861614127e+06  3.5910416045202678e+03 -6.3255282759469210e+03  2.8108650900858411e+03
 4.6640624999999411e+04  2.1851307848047214e+06 -1.9235224753547055e+06 -5.8653367462177454e+06  3.4219412114412717e+03 -6.1840516825514442e+03  3.2952684883362995e+03
 4.6703293999999412e+04  2.3933207683509430e+06 -2.3053767131096143e+06 -5.6426972645684332e+06  3.2190905188375937e+03 -5.9966863346488835e+03  3.8067082737224791e+03
 4.6755802999999411e+04  2.5575796672540586e+06 -2.6155609110553968e+06 -5.4319143607811090e+06  3.0352792316204423e+03 -5.8139837992777730e+03  4.2191406504474744e+03
 4.6808141999999410e+04  2.7113890542361555e+06 -2.9145986549753970e+06 -5.2006830079491269e+06  2.8402445266127197e+03 -5.6092751794702399e+03  4.6139245237125051e+03
 4.6868592999999411e+04  2.8759330683393106e+06 -3.2458640379592460e+06 -4.9085326059058644e+06  2.6012791757673995e+03 -5.3457887322736888e+03  5.0476128721014647e+03
 4.6923092999999411e+04  3.0115631496931915e+06 -3.5301879625881640e+06 -4.6232899487933423e+06  2.3742184413895220e+03 -5.0844510292751011e+03  5.4163465221419856e+03
 4.6977466999999415e+04  3.1342712199359792e+06 -3.7990746983077377e+06 -4.3192898777605537e+06  2.1376809648368148e+03 -4.8023568139062427e+03  5.7615747131340695e+03
 4.7032270999999411e+04  3.2446816890267641e+06 -4.0540036774450163e+06 -3.9945508134856964e+06  1.8901663962860764e+03 -4.4976325224942057e+03  6.0851525421064307e+03
 4.7083267999999414e+04  3.3350436966922744e+06 -4.2757672652973086e+06 -3.6770429236787986e+06  1.6525540825369551e+03 -4.1968106898430633e+03  6.3630487663030726e+03
 4.7136748999999414e+04  3.4166124801090825e+06 -4.4914088024086263e+06 -3.3295038614529972e+06  1.3967900980608545e+03 -3.8646840061207949e+03  6.6292904678934956e+03
 4.7190746999999414e+04  3.4849316403583977e+06 -4.6906785699034296e+06 -2.9648882537692985e+06  1.1327632325436437e+03 -3.5133985262051706e+03  6.8708372364091938e+03
 4.7241869999999413e+04  3.5363565651079142e+06 -4.8615017067140276e+06 -2.6083436185260490e+06  8.7842110138524640e+02 -3.1673587763929372e+03  7.0733526623224107e+03
 4.7302847999999416e+04  3.5805624428320047e+06 -5.0416699219734296e+06 -2.1705152048715274e+06  5.7083106012956750e+02 -2.7393208323264971e+03  7.2805361945580553e+03
 4.7347857999999418e+04  3.6011049582750187e+06 -5.1576721331879320e+06 -1.8398510221957671e+06  3.4174589424156534e+02 -2.4139505300707947e+03  7.4088601441115770e+03
 4.7393549999999421e+04  3.6113864201584230e+06 -5.2602874264810309e+06 -1.4987632184289370e+06  1.0817391414539986e+02 -2.0765476671919728e+03  7.5173179988574611e+03
 4.7435948999999418e+04  3.6113715754052335e+06 -5.3415938068791470e+06 -1.1782574223135766e+06 -1.0887475477585619e+02 -1.7579341848925437e+03  7.5980176258143047e+03
 4.7476027999999416e+04  3.6028996690073884e+06 -5.4059438943864880e+06 -8.7250712295474135e+05 -3.1380642584757686e+02 -1.4526177129162572e+03  7.6564605565631100e+03
 4.7515830999999416e+04  3.5863697844945742e+06 -5.4576725048983209e+06 -5.6688896234440547e+05 -5.1662212501812792e+02 -1.1461288584884655e+03  7.6971945496047110e+03
 4.7557871999999414e+04  3.5601688389105741e+06 -5.4990025359664513e+06 -2.4271472851435770e+05 -7.2956284441268940e+02 -8.1964117835237289e+02  7.7213891827422558e+03
 4.7602996999999414e+04  3.5221277654792480e+06 -5.5280385102220206e+06  1.0589590919774951e+05 -9.5605859680220033e+02 -4.6696791054163276e+02  7.7257695383706368e+03
 4.7649438999999416e+04  3.4723684710128084e+06 -5.5412687444636896e+06  4.6435017599005857e+05 -1.1862470760959675e+03 -1.0264896429118130e+02  7.7069281676987584e+03
 4.7694762999999417e+04  3.4135775723770512e+06 -5.5378570016665114e+06  8.1281098008406023e+05 -1.4073673009991990e+03  2.5315078801754350e+02  7.6657687186380654e+03
 4.7739991999999416e+04  3.3450102363937641e+06 -5.5183910122657344e+06  1.1581766864184756e+06 -1.6239006061146015e+03  6.0740393067514560e+02  7.6024040056796830e+03
END Ephemeris
